{
  "norad_id": 25575,
  "name": "ISS (UNITY)",
  "history": [
    {
      "epoch": "2026-03-28T20:59:21.130368",
      "apogee_km": 424.9994113407529,
      "perigee_km": 416.54292935847207,
      "latitude_deg": -18.394491232273904,
      "longitude_deg": 61.45681152003817,
      "semi_major_axis_km": 6798.908170349612,
      "eccentricity": 0.0006219,
      "inclination_deg": 51.6344,
      "raan_deg": 337.5169,
      "arg_perigee_deg": 244.1555,
      "mean_anomaly_deg": 115.8792,
      "mean_motion_rev_day": 15.48616916
    },
    {
      "epoch": "2026-03-29T03:11:03.043104",
      "apogee_km": 424.97494925259707,
      "perigee_km": 416.5239334060243,
      "latitude_deg": -30.17534022913677,
      "longitude_deg": 86.23671455984004,
      "semi_major_axis_km": 6798.88644132931,
      "eccentricity": 0.0006215,
      "inclination_deg": 51.6344,
      "raan_deg": 336.2407,
      "arg_perigee_deg": 245.2164,
      "mean_anomaly_deg": 114.8178,
      "mean_motion_rev_day": 15.4862434
    }
  ]
}